NORAD_CAT_ID,OBJECT_NAME,OBJECT_TYPE,EPOCH,MEAN_MOTION,ECCENTRICITY,INCLINATION,RA_OF_ASC_NODE,ARG_OF_PERICENTER,MEAN_ANOMALY,BSTAR,MEAN_MOTION_DOT,MEAN_MOTION_DDOT,TLE_LINE0,TLE_LINE1,TLE_LINE2,SEMIMAJOR_AXIS,PERIOD,APOGEE,PERIGEE,DECAYED
54171.0,STARLINK-5229,PAYLOAD,2023-10-18 19:20:18,15.08840947,0.0001563,53.218,327.5007,98.6589,261.458,0.0003792,5.752e-05,0.0,0 STARLINK-5229,1 54171U 22141Q   23291.80576480  .00005752  00000-0  37920-3 0  9996,2 54171  53.2180 327.5007 0001563  98.6589 261.4580 15.08840947 54015,6917.877,95.437,540.824,538.661,0.0
54171.0,STARLINK-5229,PAYLOAD,2023-10-19 09:38:46,15.08852992,0.0001455,53.2174,324.8233,92.8499,267.266,0.0005741,8.864e-05,0.0,0 STARLINK-5229,1 54171U 22141Q   23292.40192152  .00008864  00000-0  57410-3 0  9996,2 54171  53.2174 324.8233 0001455  92.8499 267.2660 15.08852992 54101,6917.841,95.437,540.712,538.699,0.0
54171.0,STARLINK-5229,PAYLOAD,2023-10-20 11:04:56,15.08839989,0.0001495,53.2178,320.065,85.9052,274.2111,8.5084e-05,1.066e-05,0.0,0 STARLINK-5229,1 54171U 22141Q   23293.46176682  .00001066  00000-0  85084-4 0  9999,2 54171  53.2178 320.0650 0001495  85.9052 274.2111 15.08839989 54265,6917.88,95.438,540.78,538.711,0.0
54171.0,STARLINK-5229,PAYLOAD,2023-10-21 09:20:20,15.0884199,0.0001593,53.2181,315.9023,87.4746,272.6429,8.1843e-05,1.015e-05,0.0,0 STARLINK-5229,1 54171U 22141Q   23294.38912875  .00001015  00000-0  81843-4 0  9996,2 54171  53.2181 315.9023 0001593  87.4746 272.6429 15.08841990 54407,6917.874,95.437,540.841,538.637,0.0
54171.0,STARLINK-5229,PAYLOAD,2023-10-21 18:52:39,15.08845193,0.0001632,53.2179,314.1176,90.3375,269.7804,0.0001003,1.309e-05,0.0,0 STARLINK-5229,1 54171U 22141Q   23294.78656696  .00001309  00000-0  10030-3 0  9991,2 54171  53.2179 314.1176 0001632  90.3375 269.7804 15.08845193 54468,6917.865,95.437,540.859,538.601,0.0
54171.0,STARLINK-5229,PAYLOAD,2023-10-22 07:35:44,15.08847203,0.0001538,53.2173,311.7384,93.9356,266.1813,0.0002422,3.569e-05,0.0,0 STARLINK-5229,1 54171U 22141Q   23295.31648577  .00003569  00000-0  24220-3 0  9996,2 54171  53.2173 311.7384 0001538  93.9356 266.1813 15.08847203 54543,6917.858,95.437,540.787,538.659,0.0
54171.0,STARLINK-5229,PAYLOAD,2023-10-22 18:43:26,15.08837359,0.0001595,53.2176,309.6568,90.7538,269.3637,9.6622e-05,1.25e-05,0.0,0 STARLINK-5229,1 54171U 22141Q   23295.78017261  .00001250  00000-0  96622-4 0  9998,2 54171  53.2176 309.6568 0001595  90.7538 269.3637 15.08837359 54614,6917.888,95.438,540.857,538.65,0.0
54171.0,STARLINK-5229,PAYLOAD,2023-10-23 07:26:32,15.08833534,0.0001619,53.2189,307.2752,108.4625,251.6544,-5.4004e-07,-2.97e-06,0.0,0 STARLINK-5229,1 54171U 22141Q   23296.31009531 -.00000297  00000-0 -54004-6 0  9991,2 54171  53.2189 307.2752 0001619 108.4625 251.6544 15.08833534 54698,6917.9,95.438,540.885,538.645,0.0
54171.0,STARLINK-5229,PAYLOAD,2023-10-24 07:17:19,15.08844172,0.0001422,53.2166,302.8181,100.0785,260.0368,0.00016109,2.277e-05,0.0,0 STARLINK-5229,1 54171U 22141Q   23297.30369306  .00002277  00000-0  16109-3 0  9999,2 54171  53.2166 302.8181 0001422 100.0785 260.0368 15.08844172 54842,6917.868,95.437,540.716,538.749,0.0
54171.0,STARLINK-5229,PAYLOAD,2023-10-25 10:18:52,15.0884733,0.0001382,53.2169,297.7616,96.1436,263.9714,0.00026627,3.953e-05,0.0,0 STARLINK-5229,1 54171U 22141Q   23298.42977085  .00003953  00000-0  26627-3 0  9990,2 54171  53.2169 297.7616 0001382  96.1436 263.9714 15.08847330 55019,6917.858,95.437,540.679,538.767,0.0
54171.0,STARLINK-5229,PAYLOAD,2023-10-26 10:09:39,15.08840723,0.0001537,53.2188,293.3022,96.2599,263.8568,6.0342e-05,6.72e-06,0.0,0 STARLINK-5229,1 54171U 22141Q   23299.42337668  .00000672  00000-0  60342-4 0  9996,2 54171  53.2188 293.3022 0001537  96.2599 263.8568 15.08840723 55167,6917.878,95.438,540.806,538.68,0.0
54171.0,STARLINK-5229,PAYLOAD,2023-10-26 16:31:12,15.0884103,0.000149,53.2186,292.1125,92.2477,267.8686,8.1393e-06,-1.58e-06,0.0,0 STARLINK-5229,1 54171U 22141Q   23299.68833728 -.00000158  00000-0  81393-5 0  9992,2 54171  53.2186 292.1125 0001490  92.2477 267.8686 15.08841030 55207,6917.877,95.437,540.773,538.711,0.0
54171.0,STARLINK-5229,PAYLOAD,2023-10-27 05:14:16,15.08854236,0.0001719,53.2184,289.7328,101.234,258.8845,9.095e-05,1.16e-05,0.0,0 STARLINK-5229,1 54171U 22141Q   23300.21824687  .00001160  00000-0  90950-4 0  9999,2 54171  53.2184 289.7328 0001719 101.2340 258.8845 15.08854236 55283,6917.837,95.437,540.891,538.513,0.0
54171.0,STARLINK-5229,PAYLOAD,2023-10-27 08:25:02,15.08856544,0.0001428,53.2164,289.1376,89.7485,270.3671,0.00023093,3.391e-05,0.0,0 STARLINK-5229,1 54171U 22141Q   23300.35072454  .00003391  00000-0  23093-3 0  9992,2 54171  53.2164 289.1376 0001428  89.7485 270.3671 15.08856544 55308,6917.83,95.437,540.683,538.707,0.0
54171.0,STARLINK-5229,PAYLOAD,2023-10-27 16:21:58,15.08846451,0.0001809,53.217,287.6504,79.6797,280.4399,8.0412e-05,9.92e-06,0.0,0 STARLINK-5229,1 54171U 22141Q   23300.68192992  .00000992  00000-0  80412-4 0  9991,2 54171  53.2170 287.6504 0001809  79.6797 280.4399 15.08846451 55358,6917.861,95.437,540.977,538.474,0.0
54171.0,STARLINK-5229,PAYLOAD,2023-10-28 08:15:50,15.08832624,0.0001735,53.2176,284.6757,79.7888,280.33,9.1998e-05,1.176e-05,0.0,0 STARLINK-5229,1 54171U 22141Q   23301.34434025  .00001176  00000-0  91998-4 0  9997,2 54171  53.2176 284.6757 0001735  79.7888 280.3300 15.08832624 55450,6917.903,95.438,540.968,538.568,0.0
54171.0,STARLINK-5229,PAYLOAD,2023-10-28 22:34:19,15.08836057,0.0001586,53.2168,281.9987,87.5368,272.5806,4.2636e-05,3.91e-06,0.0,0 STARLINK-5229,1 54171U 22141Q   23301.94049893  .00000391  00000-0  42636-4 0  9991,2 54171  53.2168 281.9987 0001586  87.5368 272.5806 15.08836057 55548,6917.892,95.438,540.855,538.66,0.0
54171.0,STARLINK-5229,PAYLOAD,2023-10-29 04:55:51,15.08846863,0.0001622,53.2166,280.8127,88.9972,271.1205,0.0003105,4.658e-05,0.0,0 STARLINK-5229,1 54171U 22141Q   23302.20545613  .00004658  00000-0  31050-3 0  9999,2 54171  53.2166 280.8127 0001622  88.9972 271.1205 15.08846863 55585,6917.859,95.437,540.846,538.602,0.0
54171.0,STARLINK-5229,PAYLOAD,2023-10-29 08:06:37,15.08857466,0.0001694,53.2166,280.2163,89.5595,270.5591,0.00066658,0.00010342,0.0,0 STARLINK-5229,1 54171U 22141Q   23302.33793397  .00010342  00000-0  66658-3 0  9996,2 54171  53.2166 280.2163 0001694  89.5595 270.5591 15.08857466 55601,6917.827,95.436,540.864,538.52,0.0
54171.0,STARLINK-5229,PAYLOAD,2023-10-29 22:25:06,15.0884471,0.0002091,53.2176,277.5389,94.5135,265.6096,0.0003417,5.155e-05,0.0,0 STARLINK-5229,1 54171U 22141Q   23302.93409962  .00005155  00000-0  34170-3 0  9994,2 54171  53.2176 277.5389 0002091  94.5135 265.6096 15.08844710 55691,6917.866,95.437,541.178,538.284,0.0
54171.0,STARLINK-5229,PAYLOAD,2023-10-30 04:46:38,15.08844225,0.0001881,53.2173,276.3501,104.924,255.196,0.00027733,4.129e-05,0.0,0 STARLINK-5229,1 54171U 22141Q   23303.19905817  .00004129  00000-0  27733-3 0  9990,2 54171  53.2173 276.3501 0001881 104.9240 255.1960 15.08844225 55730,6917.867,95.437,541.034,538.431,0.0
54171.0,STARLINK-5229,PAYLOAD,2023-10-30 15:54:21,15.0883546,0.0002043,53.2171,274.2688,92.1554,267.9672,9.2756e-05,1.188e-05,0.0,0 STARLINK-5229,1 54171U 22141Q   23303.66274339  .00001188  00000-0  92756-4 0  9990,2 54171  53.2171 274.2688 0002043  92.1554 267.9672 15.08835460 55808,6917.894,95.438,541.173,538.346,0.0
54171.0,STARLINK-5229,PAYLOAD,2023-10-31 07:48:12,15.08841567,0.0001865,53.219,271.2948,99.9336,260.1866,0.00064177,9.941e-05,0.0,0 STARLINK-5229,1 54171U 22141Q   23304.32514525  .00009941  00000-0  64177-3 0  9998,2 54171  53.2190 271.2948 0001865  99.9336 260.1866 15.08841567 55905,6917.876,95.437,541.031,538.45,0.0
54171.0,STARLINK-5229,PAYLOAD,2023-11-01 04:28:13,15.08855589,0.0001587,53.218,267.4295,93.8149,266.3025,0.00076359,0.00011891,0.0,0 STARLINK-5229,1 54171U 22141Q   23305.18626418  .00011891  00000-0  76359-3 0  9990,2 54171  53.2180 267.4295 0001587  93.8149 266.3025 15.08855589 56031,6917.833,95.437,540.796,538.6,0.0
54171.0,STARLINK-5229,PAYLOAD,2023-11-01 14:00:32,15.08847574,0.0001893,53.2189,265.6452,89.5538,270.5671,0.00034186,5.158e-05,0.0,0 STARLINK-5229,1 54171U 22141Q   23305.58370395  .00005158  00000-0  34186-3 0  9995,2 54171  53.2189 265.6452 0001893  89.5538 270.5671 15.08847574 56094,6917.857,95.437,541.032,538.413,0.0
54171.0,STARLINK-5229,PAYLOAD,2023-11-01 21:57:27,15.08851445,0.0001812,53.2186,264.1583,93.8958,266.2241,0.00041472,6.32e-05,0.0,0 STARLINK-5229,1 54171U 22141Q   23305.91490285  .00006320  00000-0  41472-3 0  9991,2 54171  53.2186 264.1583 0001812  93.8958 266.2241 15.08851445 56148,6917.845,95.437,540.964,538.457,0.0
54171.0,STARLINK-5229,PAYLOAD,2023-11-02 13:51:18,15.0884758,0.0001621,53.2181,261.1842,83.4835,276.6341,0.00030705,4.603e-05,0.0,0 STARLINK-5229,1 54171U 22141Q   23306.57730233  .00004603  00000-0  30705-3 0  9993,2 54171  53.2181 261.1842 0001621  83.4835 276.6341 15.08847580 56247,6917.857,95.437,540.844,538.601,0.0
54171.0,STARLINK-5229,PAYLOAD,2023-11-02 20:12:51,15.08842299,0.0001544,53.2177,259.9983,86.3963,273.7205,9.0229e-05,1.148e-05,0.0,0 STARLINK-5229,1 54171U 22141Q   23306.84226286  .00001148  00000-0  90229-4 0  9990,2 54171  53.2177 259.9983 0001544  86.3963 273.7205 15.08842299 56284,6917.873,95.437,540.806,538.67,0.0
54171.0,STARLINK-5229,PAYLOAD,2023-11-03 04:09:46,15.08854989,0.0001419,53.2169,258.5091,93.3426,266.7729,0.0002447,3.61e-05,0.0,0 STARLINK-5229,1 54171U 22141Q   23307.17345692  .00003610  00000-0  24470-3 0  9990,2 54171  53.2169 258.5091 0001419  93.3426 266.7729 15.08854989 56331,6917.835,95.437,540.681,538.718,0.0
54171.0,STARLINK-5229,PAYLOAD,2023-11-04 04:00:34,15.08841999,0.0001567,53.2173,254.0514,83.4693,276.6478,7.7467e-05,9.45e-06,0.0,0 STARLINK-5229,1 54171U 22141Q   23308.16706303  .00000945  00000-0  77467-4 0  9993,2 54171  53.2173 254.0514 0001567  83.4693 276.6478 15.08841999 56481,6917.874,95.437,540.823,538.655,0.0
